SPACEBEENZ-17           
1 52397U 22047D   23029.21503591  .00022108  00000+0  10043-2 0  9995
2 52397  97.4332 114.8981 0007909 105.3790 254.8319 15.20754361 42561
SPACEBEENZ-18           
1 52398U 22047E   23029.21685708  .00021945  00000+0  99771-3 0  9991
2 52398  97.4334 114.8954 0007908 105.2216 254.9894 15.20728880 42561
SPACEBEE-140            
1 52399U 22047F   23028.76343310  .00018563  00000+0  87209-3 0  9996
2 52399  97.4341 114.2873 0008271 107.9391 252.2746 15.19628898 42508
SPACEBEE-141            
1 52400U 22047G   23029.21639967  .00016257  00000+0  78214-3 0  9990
2 52400  97.4340 114.6016 0008523 106.3062 253.9110 15.18830992 42558
SPACEBEE-142            
1 52401U 22047H   23029.17400824  .00017095  00000+0  82756-3 0  9991
2 52401  97.4335 114.4970 0008438 107.1554 253.0605 15.18605950 42532
SPACEBEENZ-20           
1 52402U 22047J   23028.83432684  .00022566  00000+0  10283-2 0  9997
2 52402  97.4330 114.4659 0008590 110.2206 249.9953 15.20639283 42506
SPACEBEENZ-22           
1 52403U 22047K   23028.78939198  .00022021  00000+0  10132-2 0  9993
2 52403  97.4330 114.3746 0008605 110.1990 250.0171 15.20310670 42498
SPACEBEENZ-19           
1 52404U 22047L   23029.15770110  .00022806  00000+0  10363-2 0  9990
2 52404  97.4328 114.8011 0008583 109.2242 250.9923 15.20733612 42556
SPACEBEENZ-21           
1 52405U 22047M   23028.77368138  .00022306  00000+0  10191-2 0  9995
2 52405  97.4332 114.3969 0008553 111.0508 249.1643 15.20552236 42495
SPACEBEE-148            
1 52406U 22047N   23029.23984054  .00019149  00000+0  90171-3 0  9997
2 52406  97.4332 114.6977 0008803 109.2723 250.9464 15.19538376 42559
SPACEBEE-149            
1 52407U 22047P   23028.77836477  .00017854  00000+0  85812-3 0  9998
2 52407  97.4336 114.0849 0008919 110.4913 249.7279 15.18842386 42478
SPACEBEE-153            
1 52408U 22047Q   23028.80140313  .00016400  00000+0  78270-3 0  9996
2 52408  97.4363 114.3175 0008949 122.6036 237.6064 15.19105523 42483
SPACEBEE-150            
1 52409U 22047R   23029.17334516  .00016799  00000+0  81154-3 0  9994
2 52409  97.4337 114.4836 0008904 110.3347 249.8845 15.18678400 42536
SPACEBEE-144            
1 52410U 22047S   23028.77680409  .00016441  00000+0  79547-3 0  9993
2 52410  97.4340 114.1191 0008399 111.5341 248.6790 15.18632769 42475
SPACEBEE-145            
1 52411U 22047T   23028.78476551  .00017343  00000+0  83873-3 0  9995
2 52411  97.4338 114.1040 0008333 110.6943 249.5185 15.18638030 42477
SPACEBEE-146            
1 52412U 22047U   23029.20162034  .00017287  00000+0  83590-3 0  9995
2 52412  97.4336 114.4529 0008349 109.5672 250.6464 15.18643882 42535
SPACEBEE-151            
1 52413U 22047V   23029.18451811  .00017256  00000+0  83578-3 0  9999
2 52413  97.4331 114.4647 0008861 111.7338 248.4840 15.18581140 42536
SPACEBEE-152            
1 52414U 22047W   23029.20194394  .00015623  00000+0  76001-3 0  9992
2 52414  97.4328 114.4337 0008933 111.7301 248.4885 15.18451533 42530
SPACEBEE-147            
1 52415U 22047X   23029.19521404  .00016321  00000+0  79333-3 0  9994
2 52415  97.4338 114.4772 0008218 111.3939 248.8172 15.18474520 42538
SPACEBEE-155            
1 52416U 22047Y   23028.79295577  .00016653  00000+0  82326-3 0  9993
2 52416  97.4316 113.8919 0009367 117.5655 242.6531 15.17870894 42466
SPACEBEE-154            
1 52417U 22047Z   23029.21140370  .00016077  00000+0  78329-3 0  9990
2 52417  97.4332 114.4280 0008994 112.9562 247.2622 15.18390771 42536
SPACEBEE-167            
1 55087U 23001CG  23028.91461957  .00012000  00000+0  65834-3 0  9999
2 55087  97.4996  90.6479 0017044 125.0347 235.2486 15.14182974  3986
SPACEBEE-163            
1 55089U 23001CJ  23028.91365001  .00013134  00000+0  71874-3 0  9994
2 55089  97.4994  90.6488 0016860 124.9436 235.3382 15.14253574  3989
SPACEBEE-164            
1 55091U 23001CL  23028.91293462  .00012515  00000+0  68400-3 0  9991
2 55091  97.4995  90.6494 0017432 124.5843 235.7036 15.14302608  3987
SPACEBEE-166            
1 55092U 23001CM  23028.84517233  .00013548  00000+0  73663-3 0  9993
2 55092  97.4998  90.5866 0019226 126.1464 234.1551 15.14439474  3979
SPACEBEE-165            
1 55094U 23001CP  23029.50641641  .00012242  00000+0  66732-3 0  9999
2 55094  97.4994  91.2353 0016540 122.0099 238.2742 15.14413126  4076
SPACEBEE-162            
1 55095U 23001CQ  23029.50651481  .00011410  00000+0  62253-3 0  9993
2 55095  97.4995  91.2367 0017648 122.0540 238.2408 15.14383470  4071
SPACEBEE-161            
1 55096U 23001CR  23028.84553257  .00012364  00000+0  67422-3 0  9994
2 55096  97.4994  90.5859 0017638 124.2205 236.0701 15.14383450  3978
SPACEBEE-160            
1 55097U 23001CS  23029.57198737  .00011463  00000+0  62452-3 0  9991
2 55097  97.4996  91.3025 0017837 121.7646 238.5326 15.14432032  4081
SPACEBEE-156            
1 55099U 23001CU  23029.57188269  .00011413  00000+0  62174-3 0  9998
2 55099  97.4995  91.3026 0017786 121.7238 238.5730 15.14435978  4084
SPACEBEE-158            
1 55100U 23001CV  23028.84506999  .00013636  00000+0  74225-3 0  9993
2 55100  97.4992  90.5854 0018140 124.5873 235.7074 15.14415211  3970
SPACEBEE-159            
1 55101U 23001CW  23029.50425618  .00012390  00000+0  67131-3 0  9990
2 55101  97.4997  91.2392 0018974 121.7812 238.5271 15.14588806  4071
SPACEBEE-157            
1 55102U 23001CX  23028.84406584  .00013906  00000+0  75470-3 0  9997
2 55102  97.4992  90.5871 0017098 126.8236 233.4568 15.14531643  3971
